NORAD_CAT_ID,OBJECT_NAME,OBJECT_TYPE,EPOCH,MEAN_MOTION,ECCENTRICITY,INCLINATION,RA_OF_ASC_NODE,ARG_OF_PERICENTER,MEAN_ANOMALY,BSTAR,MEAN_MOTION_DOT,MEAN_MOTION_DDOT,TLE_LINE0,TLE_LINE1,TLE_LINE2,SEMIMAJOR_AXIS,PERIOD,APOGEE,PERIGEE,DECAYED
53150.0,STARLINK-4038,PAYLOAD,2023-06-04 23:24:39,15.08835402,0.000116,53.2172,12.4179,113.0091,247.1023,0.00019143,2.76e-05,0.0,0 STARLINK-4038,1 53150U 22083U   23155.97545583  .00002760  00000-0  19143-3 0  9997,2 53150  53.2172  12.4179 0001160 113.0091 247.1023 15.08835402 49078,6917.894,95.438,540.562,538.957,0.0
53150.0,STARLINK-4038,PAYLOAD,2023-06-05 20:04:40,15.08842087,0.0001099,53.2175,8.5499,110.5834,249.5276,2.5853e-05,1.24e-06,0.0,0 STARLINK-4038,1 53150U 22083U   23156.83657725  .00000124  00000-0  25853-4 0  9993,2 53150  53.2175   8.5499 0001099 110.5834 249.5276 15.08842087 49208,6917.874,95.437,540.499,538.979,0.0
53150.0,STARLINK-4038,PAYLOAD,2023-06-06 08:47:45,15.08851638,0.0001149,53.2175,6.1715,106.0695,254.0423,-0.00010989,-2.037e-05,0.0,0 STARLINK-4038,1 53150U 22083U   23157.36649333 -.00002037  00000-0 -10989-3 0  9998,2 53150  53.2175   6.1715 0001149 106.0695 254.0423 15.08851638 49289,6917.845,95.437,540.505,538.915,0.0
53150.0,STARLINK-4038,PAYLOAD,2023-06-06 18:20:04,15.08842681,0.0001091,53.2177,4.3861,120.8815,239.2284,6.7143e-05,7.81e-06,0.0,0 STARLINK-4038,1 53150U 22083U   23157.76393616  .00000781  00000-0  67143-4 0  9999,2 53150  53.2177   4.3861 0001091 120.8815 239.2284 15.08842681 49342,6917.872,95.437,540.492,538.982,0.0
53150.0,STARLINK-4038,PAYLOAD,2023-06-06 23:06:13,15.08847741,0.0001117,53.2176,3.4938,122.0296,238.0805,0.00010546,1.391e-05,0.0,0 STARLINK-4038,1 53150U 22083U   23157.96265136  .00001391  00000-0  10546-3 0  9998,2 53150  53.2176   3.4938 0001117 122.0296 238.0805 15.08847741 50005,6917.857,95.437,540.494,538.949,0.0
53150.0,STARLINK-4038,PAYLOAD,2023-06-07 08:38:32,15.08839645,0.0001097,53.2162,1.7087,132.6974,227.4111,3.1243e-05,2.09e-06,0.0,0 STARLINK-4038,1 53150U 22083U   23158.36009731  .00000209  00000-0  31243-4 0  9995,2 53150  53.2162   1.7087 0001097 132.6974 227.4111 15.08839645 50065,6917.881,95.438,540.505,538.988,0.0
53150.0,STARLINK-4038,PAYLOAD,2023-06-07 13:24:42,15.08837304,9.86e-05,53.2175,0.8199,94.7357,265.3748,3.2861e-05,2.35e-06,0.0,0 STARLINK-4038,1 53150U 22083U   23158.55882197  .00000235  00000-0  32861-4 0  9997,2 53150  53.2175   0.8199 0000986  94.7357 265.3748 15.08837304 49461,6917.889,95.438,540.436,539.072,0.0
53150.0,STARLINK-4038,PAYLOAD,2023-06-07 19:46:14,15.08842547,0.0001014,53.2174,359.6308,91.16,268.9508,7.4354e-05,8.96e-06,0.0,0 STARLINK-4038,1 53150U 22083U   23158.82377780  .00000896  00000-0  74354-4 0  9990,2 53150  53.2174 359.6308 0001014  91.1600 268.9508 15.08842547 49505,6917.873,95.437,540.439,539.036,0.0
53150.0,STARLINK-4038,PAYLOAD,2023-06-08 13:15:29,15.08838894,0.0001,53.2173,356.36,89.5209,270.5898,4.2211e-05,3.84e-06,0.0,0 STARLINK-4038,1 53150U 22083U   23159.55242146  .00000384  00000-0  42211-4 0  9997,2 53150  53.2173 356.3600 0001000  89.5209 270.5898 15.08838894 49617,6917.884,95.438,540.441,539.057,0.0
53150.0,STARLINK-4038,PAYLOAD,2023-06-08 19:37:01,15.08840517,0.0001,53.2171,355.1708,83.6304,276.4802,6.0125e-05,6.69e-06,0.0,0 STARLINK-4038,1 53150U 22083U   23159.81738058  .00000669  00000-0  60125-4 0  9998,2 53150  53.2171 355.1708 0001000  83.6304 276.4802 15.08840517 49651,6917.879,95.438,540.436,539.052,0.0
53150.0,STARLINK-4038,PAYLOAD,2023-06-09 16:17:02,15.08830828,9.65e-05,53.2171,351.3048,87.5461,272.5641,0.00013617,1.88e-05,0.0,0 STARLINK-4038,1 53150U 22083U   23160.67850585  .00001880  00000-0  13617-3 0  9993,2 53150  53.2171 351.3048 0000965  87.5461 272.5641 15.08830828 50410,6917.908,95.438,540.441,539.106,0.0
53150.0,STARLINK-4038,PAYLOAD,2023-06-09 22:38:34,15.08843158,0.0001039,53.2171,350.1139,89.6054,270.5058,4.9247e-05,4.96e-06,0.0,0 STARLINK-4038,1 53150U 22083U   23160.94346039  .00000496  00000-0  49247-4 0  9998,2 53150  53.2171 350.1139 0001039  89.6054 270.5058 15.08843158 50456,6917.871,95.437,540.455,539.017,0.0
53150.0,STARLINK-4038,PAYLOAD,2023-06-10 08:10:54,15.08837595,0.000103,53.2172,348.3288,89.4339,270.6771,4.4811e-05,4.25e-06,0.0,0 STARLINK-4038,1 53150U 22083U   23161.34090506  .00000425  00000-0  44811-4 0  9992,2 53150  53.2172 348.3288 0001030  89.4339 270.6771 15.08837595 50514,6917.888,95.438,540.465,539.04,0.0
53150.0,STARLINK-4038,PAYLOAD,2023-06-10 14:32:26,15.0886638,0.0001232,53.2175,347.1392,102.4706,257.6424,-0.00027868,-4.724e-05,0.0,0 STARLINK-4038,1 53150U 22083U   23161.60585770 -.00004724  00000-0 -27868-3 0  9993,2 53150  53.2175 347.1392 0001232 102.4706 257.6424 15.08866380 50556,6917.8,95.436,540.517,538.812,0.0
53150.0,STARLINK-4038,PAYLOAD,2023-06-10 19:18:35,15.08845437,9.98e-05,53.2173,346.2481,86.48,273.6306,0.00011008,1.465e-05,0.0,0 STARLINK-4038,1 53150U 22083U   23161.80457849  .00001465  00000-0  11008-3 0  9996,2 53150  53.2173 346.2481 0000998  86.4800 273.6306 15.08845437 49956,6917.864,95.437,540.419,539.038,0.0
53150.0,STARLINK-4038,PAYLOAD,2023-06-10 22:29:21,15.08847135,0.0001015,53.2173,345.6531,87.0191,273.0917,0.00012042,1.63e-05,0.0,0 STARLINK-4038,1 53150U 22083U   23161.93705682  .00001630  00000-0  12042-3 0  9994,2 53150  53.2173 345.6531 0001015  87.0191 273.0917 15.08847135 50609,6917.859,95.437,540.426,539.021,0.0
53150.0,STARLINK-4038,PAYLOAD,2023-06-11 08:01:41,15.08835584,0.0001068,53.2173,343.8692,101.48,258.6312,4.4052e-05,4.13e-06,0.0,0 STARLINK-4038,1 53150U 22083U   23162.33450706  .00000413  00000-0  44052-4 0  9998,2 53150  53.2173 343.8692 0001068 101.4800 258.6312 15.08835584 50662,6917.894,95.438,540.498,539.02,0.0
53150.0,STARLINK-4038,PAYLOAD,2023-06-11 12:47:51,15.08820874,0.0001097,53.2173,342.9793,82.8226,277.289,0.00024762,3.653e-05,0.0,0 STARLINK-4038,1 53150U 22083U   23162.53322939  .00003653  00000-0  24762-3 0  9990,2 53150  53.2173 342.9793 0001097  82.8226 277.2890 15.08820874 50068,6917.939,95.439,540.563,539.045,0.0
53150.0,STARLINK-4038,PAYLOAD,2023-06-11 19:09:22,15.08843676,0.0001224,53.2166,341.7868,92.5108,267.6025,9.2857e-05,1.19e-05,0.0,0 STARLINK-4038,1 53150U 22083U   23162.79818124  .00001190  00000-0  92857-4 0  9999,2 53150  53.2166 341.7868 0001224  92.5108 267.6025 15.08843676 50102,6917.869,95.437,540.581,538.887,0.0
53150.0,STARLINK-4038,PAYLOAD,2023-06-12 11:03:14,15.08835379,9.7e-05,53.2176,338.8155,98.9343,261.1759,7.8061e-05,9.55e-06,0.0,0 STARLINK-4038,1 53150U 22083U   23163.46058771  .00000955  00000-0  78061-4 0  9997,2 53150  53.2176 338.8155 0000970  98.9343 261.1759 15.08835379 50202,6917.895,95.438,540.431,539.088,0.0
53150.0,STARLINK-4038,PAYLOAD,2023-06-12 20:35:33,15.08841212,9.49e-05,53.2175,337.0317,98.593,261.517,2.2826e-05,7.6e-07,0.0,0 STARLINK-4038,1 53150U 22083U   23163.85802595  .00000076  00000-0  22826-4 0  9993,2 53150  53.2175 337.0317 0000949  98.5930 261.5170 15.08841212 50266,6917.877,95.437,540.398,539.085,0.0
53150.0,STARLINK-4038,PAYLOAD,2023-06-13 10:54:01,15.08834859,0.0001123,53.2178,334.3538,91.6906,268.4215,8.263e-05,1.027e-05,0.0,0 STARLINK-4038,1 53150U 22083U   23164.45418972  .00001027  00000-0  82630-4 0  9998,2 53150  53.2178 334.3538 0001123  91.6906 268.4215 15.08834859 50351,6917.896,95.438,540.538,538.984,0.0
53150.0,STARLINK-4038,PAYLOAD,2023-06-13 20:26:20,15.08841461,0.0001109,53.2182,332.5705,94.7859,265.326,7.3749e-05,8.86e-06,0.0,0 STARLINK-4038,1 53150U 22083U   23164.85162561  .00000886  00000-0  73749-4 0  9995,2 53150  53.2182 332.5705 0001109  94.7859 265.3260 15.08841461 50417,6917.876,95.437,540.508,538.974,0.0
53150.0,STARLINK-4038,PAYLOAD,2023-06-14 10:44:48,15.08838145,0.0001227,53.2171,329.8938,91.5497,268.5635,0.00011072,1.475e-05,0.0,0 STARLINK-4038,1 53150U 22083U   23165.44778785  .00001475  00000-0  11072-3 0  9997,2 53150  53.2171 329.8938 0001227  91.5497 268.5635 15.08838145 50502,6917.886,95.438,540.6,538.902,0.0
53150.0,STARLINK-4038,PAYLOAD,2023-06-14 20:17:07,15.08843658,0.0001071,53.2175,328.1089,96.7662,263.3452,0.000105,1.384e-05,0.0,0 STARLINK-4038,1 53150U 22083U   23165.84522369  .00001384  00000-0  10500-3 0  9990,2 53150  53.2175 328.1089 0001071  96.7662 263.3452 15.08843658 50564,6917.869,95.437,540.475,538.993,0.0
53150.0,STARLINK-4038,PAYLOAD,2023-06-15 10:35:35,15.08844161,0.0001539,53.2165,325.4351,77.9742,282.1423,-6.2798e-06,-3.88e-06,0.0,0 STARLINK-4038,1 53150U 22083U   23166.44138788 -.00000388  00000-0 -62798-5 0  9998,2 53150  53.2165 325.4351 0001539  77.9742 282.1423 15.08844161 51281,6917.868,95.437,540.797,538.668,0.0
53150.0,STARLINK-4038,PAYLOAD,2023-06-15 16:57:08,15.0884384,0.0001165,53.2166,324.2435,84.7689,275.3436,6.0572e-05,6.76e-06,0.0,0 STARLINK-4038,1 53150U 22083U   23166.70634514  .00000676  00000-0  60572-4 0  9990,2 53150  53.2166 324.2435 0001165  84.7689 275.3436 15.08843840 50698,6917.869,95.437,540.54,538.928,0.0
53150.0,STARLINK-4038,PAYLOAD,2023-06-16 10:26:22,15.08844729,0.0001207,53.2163,320.9725,90.1109,270.0021,6.6815e-05,7.76e-06,0.0,0 STARLINK-4038,1 53150U 22083U   23167.43498281  .00000776  00000-0  66815-4 0  9997,2 53150  53.2163 320.9725 0001207  90.1109 270.0021 15.08844729 50807,6917.866,95.437,540.566,538.896,0.0
53150.0,STARLINK-4038,PAYLOAD,2023-06-16 13:37:08,15.08847571,0.0001306,53.2165,320.3782,91.1716,268.9426,8.533e-05,1.071e-05,0.0,0 STARLINK-4038,1 53150U 22083U   23167.56746028  .00001071  00000-0  85330-4 0  9998,2 53150  53.2165 320.3782 0001306  91.1716 268.9426 15.08847571 51456,6917.857,95.437,540.626,538.819,0.0
53150.0,STARLINK-4038,PAYLOAD,2023-06-16 19:58:40,15.08853638,0.0001185,53.2171,319.1882,92.2056,267.9072,0.00011888,1.605e-05,0.0,0 STARLINK-4038,1 53150U 22083U   23167.83241374  .00001605  00000-0  11888-3 0  9991,2 53150  53.2171 319.1882 0001185  92.2056 267.9072 15.08853638 50865,6917.839,95.437,540.523,538.884,0.0
